{
  "40258": [
    {
      "epoch": "2025-12-26T18:09:50.042023+00:00",
      "mean_motion": 0.9911855800000001,
      "eccentricity": 0.000366,
      "inclination": 1.4464,
      "raan": 84.7728,
      "arg_perigee": 172.3535,
      "mean_anomaly": 232.1592,
      "bstar": 0.0,
      "tle_line1": "1 40258U 14058A   25360.75682919 -.00000207  00000-0  00000+0 0  9999",
      "tle_line2": "2 40258   1.4464  84.7728 0003660 172.3535 232.1592  0.99118558 39267",
      "norad_id": 40258,
      "object_name": "LUCH (OLYMP)"
    },
    {
      "epoch": "2025-12-27T01:00:38.527771+00:00",
      "mean_motion": 0.9911836699999999,
      "eccentricity": 0.0003676,
      "inclination": 1.4472000000000003,
      "raan": 84.7687,
      "arg_perigee": 172.5344,
      "mean_anomaly": 333.78100000000006,
      "bstar": 0.0,
      "tle_line1": "1 40258U 14058A   25361.04211259 -.00000200  00000-0  00000+0 0  9990",
      "tle_line2": "2 40258   1.4472  84.7687 0003676 172.5344 333.7810  0.99118367 39266",
      "norad_id": 40258,
      "object_name": "LUCH (OLYMP)"
    },
    {
      "epoch": "2025-12-27T12:15:00.325165+00:00",
      "mean_motion": 0.99118036,
      "eccentricity": 0.0003702,
      "inclination": 1.4484,
      "raan": 84.7621,
      "arg_perigee": 172.9649,
      "mean_anomaly": 140.4647,
      "bstar": 0.0,
      "tle_line1": "1 40258U 14058A   25361.51042043 -.00000189  00000-0  00000+0 0  9991",
      "tle_line2": "2 40258   1.4484  84.7621 0003702 172.9649 140.4647  0.99118036 39263",
      "norad_id": 40258,
      "object_name": "LUCH (OLYMP)"
    },
    {
      "epoch": "2025-12-27T18:41:33.682831+00:00",
      "mean_motion": 0.99117866,
      "eccentricity": 0.0003707,
      "inclination": 1.4491,
      "raan": 84.7586,
      "arg_perigee": 173.2456,
      "mean_anomaly": 235.9763,
      "bstar": 0.0,
      "tle_line1": "1 40258U 14058A   25361.77886207 -.00000182  00000-0  00000+0 0  9990",
      "tle_line2": "2 40258   1.4491  84.7586 0003707 173.2456 235.9763  0.99117866 39276",
      "norad_id": 40258,
      "object_name": "LUCH (OLYMP)"
    },
    {
      "epoch": "2025-12-28T01:32:09.585297+00:00",
      "mean_motion": 0.9911768900000001,
      "eccentricity": 0.0003719,
      "inclination": 1.45,
      "raan": 84.7545,
      "arg_perigee": 173.4241,
      "mean_anomaly": 337.5477,
      "bstar": 0.0,
      "tle_line1": "1 40258U 14058A   25362.06399983 -.00000175  00000-0  00000+0 0  9995",
      "tle_line2": "2 40258   1.4500  84.7545 0003719 173.4241 337.5477  0.99117689 39273",
      "norad_id": 40258,
      "object_name": "LUCH (OLYMP)"
    },
    {
      "epoch": "2025-12-28T11:47:55.618103+00:00",
      "mean_motion": 0.9911738899999999,
      "eccentricity": 0.0003746,
      "inclination": 1.4511,
      "raan": 84.7475,
      "arg_perigee": 173.8035,
      "mean_anomaly": 129.7618,
      "bstar": 0.0,
      "tle_line1": "1 40258U 14058A   25362.49161595 -.00000164  00000-0  00000+0 0  9996",
      "tle_line2": "2 40258   1.4511  84.7475 0003746 173.8035 129.7618  0.99117389 39277",
      "norad_id": 40258,
      "object_name": "LUCH (OLYMP)"
    },
    {
      "epoch": "2025-12-28T18:38:31.301086+00:00",
      "mean_motion": 0.9911721099999999,
      "eccentricity": 0.0003751,
      "inclination": 1.4519,
      "raan": 84.7439,
      "arg_perigee": 174.1122,
      "mean_anomaly": 231.20160000000004,
      "bstar": 0.0,
      "tle_line1": "1 40258U 14058A   25362.77675117 -.00000157  00000-0  00000+0 0  9999",
      "tle_line2": "2 40258   1.4519  84.7439 0003751 174.1122 231.2016  0.99117211 39288",
      "norad_id": 40258,
      "object_name": "LUCH (OLYMP)"
    },
    {
      "epoch": "2025-12-29T11:44:52.240143+00:00",
      "mean_motion": 0.9911678,
      "eccentricity": 0.0003786,
      "inclination": 1.454,
      "raan": 84.733,
      "arg_perigee": 174.6391,
      "mean_anomaly": 125.01240000000001,
      "bstar": 0.0,
      "tle_line1": "1 40258U 14058A   25363.48949352 -.00000138  00000-0  00000+0 0  9992",
      "tle_line2": "2 40258   1.4540  84.7330 0003786 174.6391 125.0124  0.99116780 39283",
      "norad_id": 40258,
      "object_name": "LUCH (OLYMP)"
    },
    {
      "epoch": "2025-12-29T19:57:38.103271+00:00",
      "mean_motion": 0.99116578,
      "eccentricity": 0.0003792,
      "inclination": 1.4549,
      "raan": 84.7283,
      "arg_perigee": 174.9983,
      "mean_anomaly": 246.7634,
      "bstar": 0.0,
      "tle_line1": "1 40258U 14058A   25363.83169101 -.00000129  00000-0  00000+0 0  9997",
      "tle_line2": "2 40258   1.4549  84.7283 0003792 174.9983 246.7634  0.99116578 39299",
      "norad_id": 40258,
      "object_name": "LUCH (OLYMP)"
    },
    {
      "epoch": "2025-12-30T00:01:38.515015+00:00",
      "mean_motion": 0.9911650100000001,
      "eccentricity": 0.0003795,
      "inclination": 1.4554,
      "raan": 84.7255,
      "arg_perigee": 175.1088,
      "mean_anomaly": 307.1197,
      "bstar": 0.0,
      "tle_line1": "1 40258U 14058A   25364.00114022 -.00000124  00000-0  00000+0 0  9994",
      "tle_line2": "2 40258   1.4554  84.7255 0003795 175.1088 307.1197  0.99116501 39298",
      "norad_id": 40258,
      "object_name": "LUCH (OLYMP)"
    },
    {
      "epoch": "2025-12-30T18:32:13.689880+00:00",
      "mean_motion": 0.9911605800000001,
      "eccentricity": 0.0003825,
      "inclination": 1.4576,
      "raan": 84.7165,
      "arg_perigee": 175.8661,
      "mean_anomaly": 221.5701,
      "bstar": 0.0,
      "tle_line1": "1 40258U 14058A   25364.77238067 -.00000104  00000-0  00000+0 0  9992",
      "tle_line2": "2 40258   1.4576  84.7165 0003825 175.8661 221.5701  0.99116058 39309",
      "norad_id": 40258,
      "object_name": "LUCH (OLYMP)"
    },
    {
      "epoch": "2025-12-31T03:05:14.628174+00:00",
      "mean_motion": 0.99115911,
      "eccentricity": 0.0003826,
      "inclination": 1.4587,
      "raan": 84.712,
      "arg_perigee": 176.1603,
      "mean_anomaly": 348.4031,
      "bstar": 0.0,
      "tle_line1": "1 40258U 14058A   25365.12864153 -.00000095  00000-0  00000+0 0  9992",
      "tle_line2": "2 40258   1.4587  84.7120 0003826 176.1603 348.4031  0.99115911 39305",
      "norad_id": 40258,
      "object_name": "LUCH (OLYMP)"
    },
    {
      "epoch": "2025-12-31T11:38:32.968323+00:00",
      "mean_motion": 0.99115722,
      "eccentricity": 0.0003839,
      "inclination": 1.4598,
      "raan": 84.7062,
      "arg_perigee": 176.4975,
      "mean_anomaly": 115.26600000000002,
      "bstar": 0.0,
      "tle_line1": "1 40258U 14058A   25365.48510380 -.00000086  00000-0  00000+0 0  9991",
      "tle_line2": "2 40258   1.4598  84.7062 0003839 176.4975 115.2660  0.99115722 39309",
      "norad_id": 40258,
      "object_name": "LUCH (OLYMP)"
    },
    {
      "epoch": "2026-01-01T01:19:31.681061+00:00",
      "mean_motion": 0.9911549499999999,
      "eccentricity": 0.000384,
      "inclination": 1.4614,
      "raan": 84.6995,
      "arg_perigee": 177.0981,
      "mean_anomaly": 318.1058,
      "bstar": 0.0,
      "tle_line1": "1 40258U 14058A   26001.05522779 -.00000071  00000-0  00000+0 0  9991",
      "tle_line2": "2 40258   1.4614  84.6995 0003840 177.0981 318.1058  0.99115495 39311",
      "norad_id": 40258,
      "object_name": "LUCH (OLYMP)"
    },
    {
      "epoch": "2026-01-01T18:25:55.829865+00:00",
      "mean_motion": 0.9911520700000002,
      "eccentricity": 0.0003846,
      "inclination": 1.4635,
      "raan": 84.6916,
      "arg_perigee": 177.8551,
      "mean_anomaly": 211.6925,
      "bstar": 0.0,
      "tle_line1": "1 40258U 14058A   26001.76800729 -.00000053  00000-0  00000+0 0  9993",
      "tle_line2": "2 40258   1.4635  84.6916 0003846 177.8551 211.6925  0.99115207 39326",
      "norad_id": 40258,
      "object_name": "LUCH (OLYMP)"
    },
    {
      "epoch": "2026-01-01T20:08:31.004730+00:00",
      "mean_motion": 0.9911518300000001,
      "eccentricity": 0.0003844,
      "inclination": 1.4637,
      "raan": 84.6901,
      "arg_perigee": 177.9378,
      "mean_anomaly": 237.03159999999997,
      "bstar": 0.0,
      "tle_line1": "1 40258U 14058A   26001.83924774 -.00000052  00000-0  00000+0 0  9997",
      "tle_line2": "2 40258   1.4637  84.6901 0003844 177.9378 237.0316  0.99115183 39327",
      "norad_id": 40258,
      "object_name": "LUCH (OLYMP)"
    },
    {
      "epoch": "2026-01-02T01:16:26.892212+00:00",
      "mean_motion": 0.99115133,
      "eccentricity": 0.0003837,
      "inclination": 1.4644,
      "raan": 84.6874,
      "arg_perigee": 178.1453,
      "mean_anomaly": 313.13,
      "bstar": 0.0,
      "tle_line1": "1 40258U 14058A   26002.05308903 -.00000046  00000-0  00000+0 0  9995",
      "tle_line2": "2 40258   1.4644  84.6874 0003837 178.1453 313.1300  0.99115133 39327",
      "norad_id": 40258,
      "object_name": "LUCH (OLYMP)"
    },
    {
      "epoch": "2026-01-02T18:22:45.854401+00:00",
      "mean_motion": 0.99114917,
      "eccentricity": 0.0003827,
      "inclination": 1.4664,
      "raan": 84.6792,
      "arg_perigee": 178.8925,
      "mean_anomaly": 206.7045,
      "bstar": 0.0,
      "tle_line1": "1 40258U 14058A   26002.76580850 -.00000029  00000-0  00000+0 0  9997",
      "tle_line2": "2 40258   1.4664  84.6792 0003827 178.8925 206.7045  0.99114917 39331",
      "norad_id": 40258,
      "object_name": "LUCH (OLYMP)"
    },
    {
      "epoch": "2026-01-03T01:13:14.079376+00:00",
      "mean_motion": 0.99114863,
      "eccentricity": 0.0003814,
      "inclination": 1.4673,
      "raan": 84.6752,
      "arg_perigee": 179.1953,
      "mean_anomaly": 308.1172,
      "bstar": 0.0,
      "tle_line1": "1 40258U 14058A   26003.05085740 -.00000022  00000-0  00000+0 0  9991",
      "tle_line2": "2 40258   1.4673  84.6752 0003814 179.1953 308.1172  0.99114863 39336",
      "norad_id": 40258,
      "object_name": "LUCH (OLYMP)"
    }
  ],
  "44878": []
}